{
  "type": "FeatureCollection",
  "features": [
    {
      "type": "Feature",
      "properties": {
        "norad_id": 41890,
        "name": "CYGFM07",
        "group": "weather",
        "lat": -32.6599963505852,
        "lon": -76.08024201357783,
        "alt_km": 415.49127249853245,
        "timestamp": "2025-12-10T07:43:54.417445+00:00",
        "meta_object_name": "CYGFM07",
        "meta_object_id": "2016-078G",
        "meta_epoch": "2025-12-09T13:39:05.039712",
        "meta_mean_motion": 15.4979977,
        "meta_eccentricity": 0.0009553,
        "meta_inclination": 34.9481,
        "meta_ra_of_asc_node": 42.2409,
        "meta_arg_of_pericenter": 187.8232,
        "meta_mean_anomaly": 172.2342,
        "meta_ephemeris_type": 0,
        "meta_classification_type": "U",
        "meta_norad_cat_id": 41890,
        "meta_element_set_no": 999,
        "meta_rev_at_epoch": 49946,
        "meta_bstar": 0.00050008,
        "meta_mean_motion_dot": 0.00028813,
        "meta_mean_motion_ddot": 0,
        "tle_line1": "1 41890U 16078G   25343.56880833  .00028813  00000+0  50008-3 0  9999",
        "tle_line2": "2 41890  34.9481  42.2409 0009553 187.8232 172.2342 15.49799770499468"
      },
      "geometry": {
        "type": "Point",
        "coordinates": [
          -76.08024201357783,
          -32.6599963505852
        ]
      }
    },
    {
      "type": "Feature",
      "properties": {
        "norad_id": 41891,
        "name": "CYGFM03",
        "group": "weather",
        "lat": 34.81961761679986,
        "lon": 124.16459392713455,
        "alt_km": 411.67309597236,
        "timestamp": "2025-12-10T07:43:54.417455+00:00",
        "meta_object_name": "CYGFM03",
        "meta_object_id": "2016-078H",
        "meta_epoch": "2025-12-09T14:21:23.159808",
        "meta_mean_motion": 15.49703336,
        "meta_eccentricity": 0.000885,
        "meta_inclination": 34.9436,
        "meta_ra_of_asc_node": 43.965,
        "meta_arg_of_pericenter": 175.1445,
        "meta_mean_anomaly": 184.9364,
        "meta_ephemeris_type": 0,
        "meta_classification_type": "U",
        "meta_norad_cat_id": 41891,
        "meta_element_set_no": 999,
        "meta_rev_at_epoch": 49944,
        "meta_bstar": 0.00050549,
        "meta_mean_motion_dot": 0.00029019,
        "meta_mean_motion_ddot": 0,
        "tle_line1": "1 41891U 16078H   25343.59818472  .00029019  00000+0  50549-3 0  9992",
        "tle_line2": "2 41891  34.9436  43.9650 0008850 175.1445 184.9364 15.49703336499445"
      },
      "geometry": {
        "type": "Point",
        "coordinates": [
          124.16459392713455,
          34.81961761679986
        ]
      }
    },
    {
      "type": "Feature",
      "properties": {
        "norad_id": 43010,
        "name": "FENGYUN 3D",
        "group": "weather",
        "lat": -75.50279390515831,
        "lon": 92.84743492691179,
        "alt_km": 833.5151373677909,
        "timestamp": "2025-12-10T07:43:54.417466+00:00",
        "meta_object_name": "FENGYUN 3D",
        "meta_object_id": "2017-072A",
        "meta_epoch": "2025-12-09T22:03:36.726048",
        "meta_mean_motion": 14.19681218,
        "meta_eccentricity": 7.81e-05,
        "meta_inclination": 98.9892,
        "meta_ra_of_asc_node": 310.1867,
        "meta_arg_of_pericenter": 191.2917,
        "meta_mean_anomaly": 168.8241,
        "meta_ephemeris_type": 0,
        "meta_classification_type": "U",
        "meta_norad_cat_id": 43010,
        "meta_element_set_no": 999,
        "meta_rev_at_epoch": 41813,
        "meta_bstar": -4.0978e-05,
        "meta_mean_motion_dot": -1.33e-06,
        "meta_mean_motion_ddot": 0,
        "tle_line1": "1 43010U 17072A   25343.91917507 -.00000133  00000+0 -40978-4 0  9991",
        "tle_line2": "2 43010  98.9892 310.1867 0000781 191.2917 168.8241 14.19681218418135"
      },
      "geometry": {
        "type": "Point",
        "coordinates": [
          92.84743492691179,
          -75.50279390515831
        ]
      }
    },
    {
      "type": "Feature",
      "properties": {
        "norad_id": 43013,
        "name": "NOAA 20 (JPSS-1)",
        "group": "weather",
        "lat": 51.37889334035026,
        "lon": -90.4823409263354,
        "alt_km": 820.9454182186182,
        "timestamp": "2025-12-10T07:43:54.417477+00:00",
        "meta_object_name": "NOAA 20 (JPSS-1)",
        "meta_object_id": "2017-073A",
        "meta_epoch": "2025-12-09T19:38:42.034848",
        "meta_mean_motion": 14.19524566,
        "meta_eccentricity": 0.0002139,
        "meta_inclination": 98.7595,
        "meta_ra_of_asc_node": 280.1473,
        "meta_arg_of_pericenter": 91.4496,
        "meta_mean_anomaly": 268.6925,
        "meta_ephemeris_type": 0,
        "meta_classification_type": "U",
        "meta_norad_cat_id": 43013,
        "meta_element_set_no": 999,
        "meta_rev_at_epoch": 41760,
        "meta_bstar": 0.00010862,
        "meta_mean_motion_dot": 1.85e-06,
        "meta_mean_motion_ddot": 0,
        "tle_line1": "1 43013U 17073A   25343.81854207  .00000185  00000+0  10862-3 0  9994",
        "tle_line2": "2 43013  98.7595 280.1473 0002139  91.4496 268.6925 14.19524566417608"
      },
      "geometry": {
        "type": "Point",
        "coordinates": [
          -90.4823409263354,
          51.37889334035026
        ]
      }
    },
    {
      "type": "Feature",
      "properties": {
        "norad_id": 43226,
        "name": "GOES 17",
        "group": "weather",
        "lat": 0.1462830474483882,
        "lon": 105.77053457441609,
        "alt_km": 35800.24023933275,
        "timestamp": "2025-12-10T07:43:54.417490+00:00",
        "meta_object_name": "GOES 17",
        "meta_object_id": "2018-022A",
        "meta_epoch": "2025-12-09T17:17:19.199040",
        "meta_mean_motion": 1.0027166,
        "meta_eccentricity": 0.000339,
        "meta_inclination": 0.4523,
        "meta_ra_of_asc_node": 89.1533,
        "meta_arg_of_pericenter": 186.3266,
        "meta_mean_anomaly": 333.0613,
        "meta_ephemeris_type": 0,
        "meta_classification_type": "U",
        "meta_norad_cat_id": 43226,
        "meta_element_set_no": 999,
        "meta_rev_at_epoch": 2852,
        "meta_bstar": 0,
        "meta_mean_motion_dot": -1.8e-06,
        "meta_mean_motion_ddot": 0,
        "tle_line1": "1 43226U 18022A   25343.72036110 -.00000180  00000+0  00000+0 0  9995",
        "tle_line2": "2 43226   0.4523  89.1533 0003390 186.3266 333.0613  1.00271660 28528"
      },
      "geometry": {
        "type": "Point",
        "coordinates": [
          105.77053457441609,
          0.1462830474483882
        ]
      }
    },
    {
      "type": "Feature",
      "properties": {
        "norad_id": 43491,
        "name": "FENGYUN 2H",
        "group": "weather",
        "lat": -0.6041520944876217,
        "lon": -85.35967678993173,
        "alt_km": 35775.403012671864,
        "timestamp": "2025-12-10T07:43:54.417503+00:00",
        "meta_object_name": "FENGYUN 2H",
        "meta_object_id": "2018-050A",
        "meta_epoch": "2025-12-09T19:05:09.222432",
        "meta_mean_motion": 1.00271057,
        "meta_eccentricity": 0.0002945,
        "meta_inclination": 2.5431,
        "meta_ra_of_asc_node": 81.3522,
        "meta_arg_of_pericenter": 164.9278,
        "meta_mean_anomaly": 198.1502,
        "meta_ephemeris_type": 0,
        "meta_classification_type": "U",
        "meta_norad_cat_id": 43491,
        "meta_element_set_no": 999,
        "meta_rev_at_epoch": 2754,
        "meta_bstar": 0,
        "meta_mean_motion_dot": -1.27e-06,
        "meta_mean_motion_ddot": 0,
        "tle_line1": "1 43491U 18050A   25343.79524563 -.00000127  00000+0  00000+0 0  9992",
        "tle_line2": "2 43491   2.5431  81.3522 0002945 164.9278 198.1502  1.00271057 27543"
      },
      "geometry": {
        "type": "Point",
        "coordinates": [
          -85.35967678993173,
          -0.6041520944876217
        ]
      }
    },
    {
      "type": "Feature",
      "properties": {
        "norad_id": 43689,
        "name": "METOP-C",
        "group": "weather",
        "lat": 3.5362425245169598,
        "lon": -137.32949501399187,
        "alt_km": 823.3756045352402,
        "timestamp": "2025-12-10T07:43:54.417514+00:00",
        "meta_object_name": "METOP-C",
        "meta_object_id": "2018-087A",
        "meta_epoch": "2025-12-09T19:04:48.173664",
        "meta_mean_motion": 14.21510269,
        "meta_eccentricity": 0.0001465,
        "meta_inclination": 98.6934,
        "meta_ra_of_asc_node": 41.6097,
        "meta_arg_of_pericenter": 47.4679,
        "meta_mean_anomaly": 312.6622,
        "meta_ephemeris_type": 0,
        "meta_classification_type": "U",
        "meta_norad_cat_id": 43689,
        "meta_element_set_no": 999,
        "meta_rev_at_epoch": 36792,
        "meta_bstar": 0.00013657,
        "meta_mean_motion_dot": 2.55e-06,
        "meta_mean_motion_ddot": 0,
        "tle_line1": "1 43689U 18087A   25343.79500201  .00000255  00000+0  13657-3 0  9991",
        "tle_line2": "2 43689  98.6934  41.6097 0001465  47.4679 312.6622 14.21510269367921"
      },
      "geometry": {
        "type": "Point",
        "coordinates": [
          -137.32949501399187,
          3.5362425245169598
        ]
      }
    }
  ]
}